{"type": "FeatureCollection", "features": [ {"type": "Feature", "properties": {"norad_id": 31168, "name": "FENGYUN 1C DEB", "group": "fengyun-1c-debris", "lat": -18.598014990788418, "lon": 128.6540956243808, "alt_km": 636.2322862408973, "timestamp": "2025-12-19T18:58:41.868799+00:00", "meta": {"OBJECT_NAME": "FENGYUN 1C DEB", "OBJECT_ID": "1999-025BHW", "EPOCH": "2025-12-17T19:36:15.237792", "MEAN_MOTION": 14.67384321, "ECCENTRICITY": 0.01086459, "INCLINATION": 98.8907, "RA_OF_ASC_NODE": 123.4941, "ARG_OF_PERICENTER": 48.0003, "MEAN_ANOMALY": 313.0388, "EPHEMERIS_TYPE": 0, "CLASSIFICATION_TYPE": "U", "NORAD_CAT_ID": 31168, "ELEMENT_SET_NO": 999, "REV_AT_EPOCH": 99195, "BSTAR": 0.00045178853, "MEAN_MOTION_DOT": 2.728e-05, "MEAN_MOTION_DDOT": 0}, "tle": {"line1": "1 31168U 99025BHW 25351.81684303  .00002728  00000+0  45179-3 0  9990", "line2": "2 31168  98.8907 123.4941 0108645  48.0003 313.0388 14.67384321991953"}}, "geometry": {"type": "Point", "coordinates": [128.6540956243808, -18.598014990788418]}}, {"type": "Feature", "properties": {"norad_id": 31169, "name": "FENGYUN 1C DEB", "group": "fengyun-1c-debris", "lat": -62.37721373339046, "lon": -177.41012030787843, "alt_km": 826.6165923900226, "timestamp": "2025-12-19T18:58:41.868810+00:00", "meta": {"OBJECT_NAME": "FENGYUN 1C DEB", "OBJECT_ID": "1999-025BHX", "EPOCH": "2025-12-19T01:00:08.782848", "MEAN_MOTION": 14.26509037, "ECCENTRICITY": 0.00571882, "INCLINATION": 99.1563, "RA_OF_ASC_NODE": 19.7585, "ARG_OF_PERICENTER": 359.2626, "MEAN_ANOMALY": 0.8459, "EPHEMERIS_TYPE": 0, "CLASSIFICATION_TYPE": "U", "NORAD_CAT_ID": 31169, "ELEMENT_SET_NO": 999, "REV_AT_EPOCH": 57194, "BSTAR": 0.0015947535, "MEAN_MOTION_DOT": 3.864e-05, "MEAN_MOTION_DDOT": 0}, "tle": {"line1": "1 31169U 99025BHX 25353.04176832  .00003864  00000+0  15948-2 0  9993", "line2": "2 31169  99.1563  19.7585 0057188 359.2626   0.8459 14.26509037571941"}}, "geometry": {"type": "Point", "coordinates": [-177.41012030787843, -62.37721373339046]}}, {"type": "Feature", "properties": {"norad_id": 31171, "name": "FENGYUN 1C DEB", "group": "fengyun-1c-debris", "lat": -9.682426070829063, "lon": 161.5839633334753, "alt_km": 807.3113005811674, "timestamp": "2025-12-19T18:58:41.868820+00:00", "meta": {"OBJECT_NAME": "FENGYUN 1C DEB", "OBJECT_ID": "1999-025BHZ", "EPOCH": "2025-12-18T05:33:59.082048", "MEAN_MOTION": 14.34966122, "ECCENTRICITY": 0.01536324, "INCLINATION": 98.0157, "RA_OF_ASC_NODE": 341.5134, "ARG_OF_PERICENTER": 300.03, "MEAN_ANOMALY": 123.2045, "EPHEMERIS_TYPE": 0, "CLASSIFICATION_TYPE": "U", "NORAD_CAT_ID": 31171, "ELEMENT_SET_NO": 999, "REV_AT_EPOCH": 95909, "BSTAR": 0.0035548486, "MEAN_MOTION_DOT": 0.00011534, "MEAN_MOTION_DDOT": 0}, "tle": {"line1": "1 31171U 99025BHZ 25352.23193382  .00011534  00000+0  35548-2 0  9996", "line2": "2 31171  98.0157 341.5134 0153632 300.0300 123.2045 14.34966122959099"}}, "geometry": {"type": "Point", "coordinates": [161.5839633334753, -9.682426070829063]}}, {"type": "Feature", "properties": {"norad_id": 31172, "name": "FENGYUN 1C DEB", "group": "fengyun-1c-debris", "lat": 4.625583739895306, "lon": -2.6283576709818375, "alt_km": 836.3986680231228, "timestamp": "2025-12-19T18:58:41.868830+00:00", "meta": {"OBJECT_NAME": "FENGYUN 1C DEB", "OBJECT_ID": "1999-025BJA", "EPOCH": "2025-12-19T07:12:49.133088", "MEAN_MOTION": 14.31519634, "ECCENTRICITY": 0.01481047, "INCLINATION": 98.4247, "RA_OF_ASC_NODE": 357.5829, "ARG_OF_PERICENTER": 248.9438, "MEAN_ANOMALY": 109.5854, "EPHEMERIS_TYPE": 0, "CLASSIFICATION_TYPE": "U", "NORAD_CAT_ID": 31172, "ELEMENT_SET_NO": 999, "REV_AT_EPOCH": 97720, "BSTAR": 0.00011207559, "MEAN_MOTION_DOT": 2.89e-06, "MEAN_MOTION_DDOT": 0}, "tle": {"line1": "1 31172U 99025BJA 25353.30056867  .00000289  00000+0  11208-3 0  9995", "line2": "2 31172  98.4247 357.5829 0148104 248.9438 109.5854 14.31519634977209"}}, "geometry": {"type": "Point", "coordinates": [-2.6283576709818375, 4.625583739895306]}}, {"type": "Feature", "properties": {"norad_id": 31175, "name": "FENGYUN 1C DEB", "group": "fengyun-1c-debris", "lat": -81.02188030968478, "lon": 63.27107701985891, "alt_km": 732.791413125643, "timestamp": "2025-12-19T18:58:41.868840+00:00", "meta": {"OBJECT_NAME": "FENGYUN 1C DEB", "OBJECT_ID": "1999-025BJD", "EPOCH": "2025-12-18T05:33:27.293760", "MEAN_MOTION": 14.60267568, "ECCENTRICITY": 0.00742869, "INCLINATION": 98.3969, "RA_OF_ASC_NODE": 352.4777, "ARG_OF_PERICENTER": 148.2958, "MEAN_ANOMALY": 212.2748, "EPHEMERIS_TYPE": 0, "CLASSIFICATION_TYPE": "U", "NORAD_CAT_ID": 31175, "ELEMENT_SET_NO": 999, "REV_AT_EPOCH": 65719, "BSTAR": 0.0035056858, "MEAN_MOTION_DOT": 0.0001758, "MEAN_MOTION_DDOT": 0}, "tle": {"line1": "1 31175U 99025BJD 25352.23156590  .00017580  00000+0  35057-2 0  9992", "line2": "2 31175  98.3969 352.4777 0074286 148.2958 212.2748 14.60267568657191"}}, "geometry": {"type": "Point", "coordinates": [63.27107701985891, -81.02188030968478]}}, {"type": "Feature", "properties": {"norad_id": 31177, "name": "FENGYUN 1C DEB", "group": "fengyun-1c-debris", "lat": -61.634269319971196, "lon": -76.87901654980614, "alt_km": 805.5487364116107, "timestamp": "2025-12-19T18:58:41.868850+00:00", "meta": {"OBJECT_NAME": "FENGYUN 1C DEB", "OBJECT_ID": "1999-025BJF", "EPOCH": "2025-12-18T16:58:40.552320", "MEAN_MOTION": 13.62386319, "ECCENTRICITY": 0.03087352, "INCLINATION": 98.7592, "RA_OF_ASC_NODE": 265.5544, "ARG_OF_PERICENTER": 298.4835, "MEAN_ANOMALY": 88.0048, "EPHEMERIS_TYPE": 0, "CLASSIFICATION_TYPE": "U", "NORAD_CAT_ID": 31177, "ELEMENT_SET_NO": 999, "REV_AT_EPOCH": 66293, "BSTAR": 0.0039292142, "MEAN_MOTION_DOT": 4.155e-05, "MEAN_MOTION_DDOT": 0}, "tle": {"line1": "1 31177U 99025BJF 25352.70741380  .00004155  00000+0  39292-2 0  9992", "line2": "2 31177  98.7592 265.5544 0308735 298.4835  88.0048 13.62386319662933"}}, "geometry": {"type": "Point", "coordinates": [-76.87901654980614, -61.634269319971196]}}, {"type": "Feature", "properties": {"norad_id": 31178, "name": "FENGYUN 1C DEB", "group": "fengyun-1c-debris", "lat": 80.46385618902927, "lon": -96.94140831742813, "alt_km": 892.036214523795, "timestamp": "2025-12-19T18:58:41.868861+00:00", "meta": {"OBJECT_NAME": "FENGYUN 1C DEB", "OBJECT_ID": "1999-025BJG", "EPOCH": "2025-12-18T07:05:42.469152", "MEAN_MOTION": 14.22259738, "ECCENTRICITY": 0.01258717, "INCLINATION": 99.5125, "RA_OF_ASC_NODE": 354.9683, "ARG_OF_PERICENTER": 299.9049, "MEAN_ANOMALY": 58.9671, "EPHEMERIS_TYPE": 0, "CLASSIFICATION_TYPE": "U", "NORAD_CAT_ID": 31178, "ELEMENT_SET_NO": 999, "REV_AT_EPOCH": 95894, "BSTAR": 0.0016924306, "MEAN_MOTION_DOT": 4.025e-05, "MEAN_MOTION_DDOT": 0}, "tle": {"line1": "1 31178U 99025BJG 25352.29563043  .00004025  00000+0  16924-2 0  9998", "line2": "2 31178  99.5125 354.9683 0125871 299.9049  58.9671 14.22259738958941"}}, "geometry": {"type": "Point", "coordinates": [-96.94140831742813, 80.46385618902927]}}, {"type": "Feature", "properties": {"norad_id": 31179, "name": "FENGYUN 1C DEB", "group": "fengyun-1c-debris", "lat": -66.8068627573401, "lon": 171.7704602651537, "alt_km": 934.0360481642265, "timestamp": "2025-12-19T18:58:41.868871+00:00", "meta": {"OBJECT_NAME": "FENGYUN 1C DEB", "OBJECT_ID": "1999-025BJH", "EPOCH": "2025-12-18T07:16:13.358496", "MEAN_MOTION": 13.91941548, "ECCENTRICITY": 0.02152306, "INCLINATION": 99.0195, "RA_OF_ASC_NODE": 12.0814, "ARG_OF_PERICENTER": 345.6132, "MEAN_ANOMALY": 13.8961, "EPHEMERIS_TYPE": 0, "CLASSIFICATION_TYPE": "U", "NORAD_CAT_ID": 31179, "ELEMENT_SET_NO": 999, "REV_AT_EPOCH": 62018, "BSTAR": 0.00082156675, "MEAN_MOTION_DOT": 1.222e-05, "MEAN_MOTION_DDOT": 0}, "tle": {"line1": "1 31179U 99025BJH 25352.30293239  .00001222  00000+0  82157-3 0  9996", "line2": "2 31179  99.0195  12.0814 0215230 345.6132  13.8961 13.91941548620189"}}, "geometry": {"type": "Point", "coordinates": [171.7704602651537, -66.8068627573401]}}, {"type": "Feature", "properties": {"norad_id": 31180, "name": "FENGYUN 1C DEB", "group": "fengyun-1c-debris", "lat": 2.9592566367147755, "lon": -54.449954044135495, "alt_km": 1252.7666107964405, "timestamp": "2025-12-19T18:58:41.868881+00:00", "meta": {"OBJECT_NAME": "FENGYUN 1C DEB", "OBJECT_ID": "1999-025BJJ", "EPOCH": "2025-12-18T02:41:34.960416", "MEAN_MOTION": 13.70347293, "ECCENTRICITY": 0.04981374, "INCLINATION": 99.2178, "RA_OF_ASC_NODE": 123.4529, "ARG_OF_PERICENTER": 45.9587, "MEAN_ANOMALY": 130.4919, "EPHEMERIS_TYPE": 0, "CLASSIFICATION_TYPE": "U", "NORAD_CAT_ID": 31180, "ELEMENT_SET_NO": 999, "REV_AT_EPOCH": 64140, "BSTAR": 0.00015187392, "MEAN_MOTION_DOT": 2.8e-06, "MEAN_MOTION_DDOT": 0}, "tle": {"line1": "1 31180U 99025BJJ 25352.11221019  .00000280  00000+0  15187-3 0  9996", "line2": "2 31180  99.2178 123.4529 0498137  45.9587 130.4919 13.70347293641408"}}, "geometry": {"type": "Point", "coordinates": [-54.449954044135495, 2.9592566367147755]}}, {"type": "Feature", "properties": {"norad_id": 31181, "name": "FENGYUN 1C DEB", "group": "fengyun-1c-debris", "lat": 33.16193014431351, "lon": 20.396214354063186, "alt_km": 818.373622852102, "timestamp": "2025-12-19T18:58:41.868891+00:00", "meta": {"OBJECT_NAME": "FENGYUN 1C DEB", "OBJECT_ID": "1999-025BJK", "EPOCH": "2025-12-16T00:49:27.083136", "MEAN_MOTION": 14.11897653, "ECCENTRICITY": 0.00479368, "INCLINATION": 98.7771, "RA_OF_ASC_NODE": 22.5146, "ARG_OF_PERICENTER": 65.4183, "MEAN_ANOMALY": 325.7974, "EPHEMERIS_TYPE": 0, "CLASSIFICATION_TYPE": "U", "NORAD_CAT_ID": 31181, "ELEMENT_SET_NO": 999, "REV_AT_EPOCH": 95814, "BSTAR": 0.00086139696, "MEAN_MOTION_DOT": 1.548e-05, "MEAN_MOTION_DDOT": 0}, "tle": {"line1": "1 31181U 99025BJK 25350.03434124  .00001548  00000+0  86140-3 0  9994", "line2": "2 31181  98.7771  22.5146 0047936  65.4183 325.7974 14.11897653958140"}}, "geometry": {"type": "Point", "coordinates": [20.396214354063186, 33.16193014431351]}}]}